ABS-2                   
1 39508U 14006A   16361.52668495 -.00000078  00000-0  00000+0 0  9993
2 39508   0.0184   1.0438 0003142 287.9705  70.9547  1.00271826 10644
ATHENA-FIDUS            
1 39509U 14006B   16361.62960224  .00000162  00000-0  00000+0 0  9993
2 39509   0.0105 346.1300 0000989 305.4071  68.4556  1.00272969 10817
TURKSAT 4A              
1 39522U 14007A   16362.61506277  .00000155  00000-0  00000+0 0  9995
2 39522   0.0731 273.4256 0004923 356.7431  89.7782  1.00274913 10537
EXPRESS-AT1             
1 39612U 14010A   16361.99548683  .00000087  00000-0  00000+0 0  9990
2 39612   0.0432 200.4858 0000352 273.1271  36.6737  1.00271102 10368
EXPRESS-AT2             
1 39613U 14010B   16363.62977620 -.00000272  00000-0  00000+0 0  9997
2 39613   0.0518 204.7991 0000179 190.8249  68.4571  1.00271408 10218
AMAZONAS 4A             
1 39616U 14011A   16362.90041516 -.00000274  00000-0  00000+0 0  9999
2 39616   0.0421  53.3667 0002711 277.6789  28.9427  1.00268170 10199
ASTRA 5B                
1 39617U 14011B   16362.81368793  .00000164  00000-0  00000+0 0  9996
2 39617   0.0321 359.9825 0002160 265.8025 155.3717  1.00274695 10196
IRNSS-1B                
1 39635U 14017A   16356.99382978  .00000056  00000-0  00000+0 0  9995
2 39635  29.4132 297.6809 0018124 189.2593  16.8717  1.00277074 10068
LUCH 5V                 
1 39727U 14023A   16362.77461596 -.00000256  00000-0  00000+0 0  9994
2 39727   3.0401 299.4773 0004056 352.6997 178.0952  1.00269902527842
KAZSAT 3                
1 39728U 14023B   16362.56950621  .00000069  00000-0  00000+0 0  9995
2 39728   0.0124  40.9577 0000300 277.5264  41.5171  1.00271334  9768
EUTELSAT 3B             
1 39773U 14030A   16362.83338682  .00000029  00000-0  00000+0 0  9996
2 39773   0.0669  32.6167 0002811 257.0684 110.1526  1.00271904  9549
ASIASAT 8               
1 40107U 14046A   16362.43978619 -.00000324  00000-0  00000+0 0  9991
2 40107   0.0239 310.2695 0001160 309.9139  99.8070  1.00273223  8827
ASIASAT 6               
1 40141U 14052A   16362.99427734 -.00000353  00000-0  00000+0 0  9996
2 40141   0.0205 294.2272 0000328  76.1611 204.3283  1.00268682  8487
OPTUS 10                
1 40146U 14054A   16362.27720864 -.00000065  00000-0  00000+0 0  9994
2 40146   0.0403  77.2464 0001399 208.3731  74.3684  1.00271639  8447
MEASAT-3B               
1 40147U 14054B   16361.48079921 -.00000234  00000-0  00000-0 0  9997
2 40147   0.0231 355.4177 0002165 315.4895  49.0773  1.00272605  8220
LUCH (OLYMP)            
1 40258U 14058A   16361.88733655  .00000076  00000-0  00000-0 0  9992
2 40258   0.0005   2.1073 0000964 241.9192 181.1090  1.00272887  8256
HIMAWARI-8              
1 40267U 14060A   16362.34189261 -.00000266  00000-0  00000+0 0  9996
2 40267   0.0188 283.4325 0000891 359.6412  76.9198  1.00273126  8182
IRNSS-1C                
1 40269U 14061A   16362.21264209 -.00000149  00000-0  00000+0 0  9991
2 40269   3.3528 255.2926 0022636   2.1624 358.3009  1.00272001  8132
INTELSAT 30 (IS-30)     
1 40271U 14062A   16362.53664182 -.00000142  00000-0  00000+0 0  9997
2 40271   0.0181  20.5767 0002095  85.2386  88.7625  1.00272187  8081
ARSAT 1                 
1 40272U 14062B   16362.51996416 -.00000251  00000-0  00000+0 0  9995
2 40272   0.0162 323.8294 0001472 310.9989 296.9947  1.00272711  8207
EXPRESS-AM6             
1 40277U 14064A   16362.63347001  .00000107  00000-0  00000+0 0  9994
2 40277   0.0460 196.0109 0000232 137.1039  44.4644  1.00272424  7992
GSAT-16                 
1 40332U 14078A   16363.57806124  .00000094  00000-0  00000+0 0  9996
2 40332   0.0367  88.1804 0002636   6.4117 265.9905  1.00271587  7593
DIRECTV 14              
1 40333U 14078B   16363.51776133 -.00000116  00000-0  00000+0 0  9993
2 40333   0.0184  12.5861 0000836 341.3540 190.6288  1.00271721  7572
YAMAL 401               
1 40345U 14082A   16362.77750948 -.00000219  00000-0  00000+0 0  9998
2 40345   0.0560 127.6307 0000501 261.7454  77.1467  1.00271124  7737
ASTRA 2G                
1 40364U 14089A   16362.65345812  .00000159  00000-0  00000+0 0  9995
2 40364   0.0358 335.7953 0001868  47.4156 336.8013  1.00271997  7344
FENGYUN 2G              
1 40367U 14090A   16363.51197605 -.00000317  00000-0  00000+0 0  9998
2 40367   0.7867 266.8889 0001236 342.9673 136.2244  1.00262575  7370
INMARSAT 5-F2           
1 40384U 15005A   16363.32167112 -.00000276  00000-0  00000+0 0  9997
2 40384   0.0248   8.1461 0000250 344.0513 165.8027  1.00270175  7001
ABS-3A                  
1 40424U 15010A   16362.73965239 -.00000017  00000-0  00000+0 0  9991
2 40424   0.0236  27.2233 0001571 159.0891 173.6856  1.00270169  6731
EUTELSAT 115 WEST B     
1 40425U 15010B   16362.05264426 -.00000016  00000-0  00000+0 0  9996
2 40425   0.0123 156.7610 0000195 136.8008  66.4396  1.00271121  6757
EXPRESS-AM7             
1 40505U 15012A   16362.85188219  .00000160  00000-0  00000+0 0  9999
2 40505   0.0106 359.0510 0001779 278.0765 166.2870  1.00271707  6680
IRNSS-1D                
1 40547U 15018A   16362.24926005 -.00000309  00000-0  00000+0 0  9993
2 40547  29.3956 297.7395 0018103 187.1783 172.8112  1.00275298  6569
BEIDOU I1-S             
1 40549U 15019A   16362.49181921 -.00000181  00000-0  00000+0 0  9991
2 40549  54.5549 335.7313 0040445 185.1819 208.8473  1.00276475  6405
THOR 7                  
1 40613U 15022A   16362.73333921  .00000001  00000-0  00000+0 0  9993
2 40613   0.0418 138.6872 0002492 153.3341  67.9556  1.00272883  6141
TURKMENALEM52E/MONACOSAT
1 40617U 15023A   16361.59017001  .00000112  00000-0  00000-0 0  9993
2 40617   0.0116  22.9888 0002232 264.9099  72.0801  1.00270976  6155
DIRECTV 15              
1 40663U 15026A   16362.01896675 -.00000094  00000-0  00000+0 0  9996
2 40663   0.0194  61.3431 0000353 314.9707 343.6907  1.00269881  5850
SKY MEXICO-1            
1 40664U 15026B   16362.94973920 -.00000225  00000-0  00000+0 0  9994
2 40664   0.0233 354.1618 0001840 288.8485  76.9691  1.00270239  5865
METEOSAT-11 (MSG-4)     
1 40732U 15034A   16363.43501335 -.00000019  00000-0  00000+0 0  9992
2 40732   2.1331 249.5136 0001898  30.2259 330.4668  1.00269707  5372
STAR ONE C4             
1 40733U 15034B   16362.92543252 -.00000256  00000-0  00000+0 0  9993
2 40733   0.0238  25.4058 0002331 284.0316  50.5452  1.00273274  5360
INTELSAT 34 (IS-34)     
1 40874U 15039A   16362.88532032 -.00000276  00000-0  00000+0 0  9995
2 40874   0.0243   7.7991 0000540 159.9600 192.2422  1.00268058  5003
EUTELSAT 8 WEST B       
1 40875U 15039B   16361.75637186 -.00000057  00000-0  00000+0 0  9994
2 40875   0.0629 354.9674 0004300 290.0854  74.9030  1.00271301  5009
GSAT-6                  
1 40880U 15041A   16361.50403359 -.00000156  00000-0  00000+0 0  9999
2 40880   0.1877 261.9200 0010982  11.1988  86.7584  1.00271790  4945
INMARSAT 5-F3           
1 40882U 15042A   16362.23412504  .00000059  00000-0  00000+0 0  9996
2 40882   0.0245   8.7448 0001138  77.8300 273.4383  1.00273924  4871
TJS-1                   
1 40892U 15046A   16361.86913758 -.00000148  00000-0  00000-0 0  9997
2 40892   0.0560  74.7727 0002637 238.5370 250.4250  1.00270701  4860
EXPRESS-AM8             
1 40895U 15048A   16363.20165418 -.00000102  00000-0  00000+0 0  9993
2 40895   0.0378 205.4543 0000552  68.0254 242.2077  1.00272328  4706
BEIDOU I2-S             
1 40938U 15053A   16363.48983360 -.00000156  00000-0  00000+0 0  9990
2 40938  54.4409 298.6033 0046357 174.5561 255.3689  1.00288071  4691
SKY MUSTER (NBN1A)      
1 40940U 15054A   16362.34300094 -.00000270  00000-0  00000+0 0  9992
2 40940   0.0227 354.5489 0001732 276.7791  88.6522  1.00270109  4601
ARSAT 2                 
1 40941U 15054B   16362.95588959 -.00000216  00000-0  00000+0 0  9998
2 40941   0.0253 359.8494 0001946 284.2395  75.8895  1.00270845  4648
MORELOS 3               
1 40946U 15056A   16362.96253405 -.00000032  00000-0  00000+0 0  9997
2 40946   6.6359 330.1997 0003144 354.2742   5.8150  1.00267996  4615
APSTAR 9                
1 40982U 15059A   16361.34087126 -.00000257  00000-0  00000+0 0  9995
2 40982   0.0354 257.1841 0001862 356.1931 106.6055  1.00273732  4462
TURKSAT 4B              
1 40984U 15060A   16362.59304699  .00000123  00000-0  00000+0 0  9995
2 40984   0.0214 304.7561 0001826 327.7669  87.4594  1.00276613  4431
CHINASAT 2C (ZX 2C)     
1 41021U 15063A   16362.82132521 -.00000315  00000-0  00000+0 0  9994
2 41021   0.0515 160.3837 0003129 185.5382 149.9199  1.00272524  4331
GSAT-15                 
1 41028U 15065A   16361.47520104 -.00000250  00000-0  00000+0 0  9999
2 41028   0.0401  86.3161 0001916 184.7307  88.9343  1.00271836  4179
BADR-7 (ARABSAT-6B)     
1 41029U 15065B   16362.65937982  .00000154  00000-0  00000+0 0  9999
2 41029   0.0639 256.8148 0004454 350.9957 112.1455  1.00274307  4237
LAOSAT 1                
1 41034U 15067A   16361.37827031 -.00000335  00000-0  00000+0 0  9990
2 41034   0.0024 252.8591 0001660 341.6361 125.4894  1.00270084  4154
TELSTAR 12V             
1 41036U 15068A   16362.77306610 -.00000110  00000-0  00000+0 0  9994
2 41036   0.0215  13.8811 0002374 270.2122  75.8803  1.00270597  4059
CHINASAT 1C (ZX 1C)     
1 41103U 15073A   16363.06473778 -.00000142  00000-0  00000+0 0  9993
2 41103   0.0444 217.3431 0004367  64.5795 279.9210  1.00272877  3995
ELEKTRO-L 2             
1 41105U 15074A   16362.82036464 -.00000087  00000-0  00000+0 0  9994
2 41105   0.0297 262.5677 0000243 195.7941   9.6746  1.00269976  3848
COSMOS 2513             
1 41121U 15075A   16363.06442583 -.00000129  00000-0  00000+0 0  9990
2 41121   0.0727  84.8219 0003117 210.5779 264.9990  1.00272151  3924
EXPRESS-AMU1            
1 41191U 15082A   16361.93882341  .00000164  00000-0  00000-0 0  9998
2 41191   0.0051  25.8518 0001663 230.7245 213.3456  1.00274487  3822
